start=new Date('2023-01-11T00:00:00.000Z').valueOf();
sats=[{"GP_ID":"222665503","PERIOD":"95.437","FILE":"3739038","PERIAPSIS":"538.191","OBJECT_TYPE":"PAYLOAD","ELEMENT_SET_NO":"999","TIME_SYSTEM":"UTC","TLE_LINE1":"1 52995U 22076K   23010.32733604 -.00000053  00000-0  14774-4 0  9997","ARG_OF_PERICENTER":"36.9047","COUNTRY_CODE":"US","CLASSIFICATION_TYPE":"U","LAUNCH_DATE":"2022-07-07","SEMIMAJOR_AXIS":"6917.868","OBJECT_ID":"2022-076K","OBJECT_NAME":"STARLINK-4296","APOAPSIS":"541.275","MEAN_MOTION":"15.08843948","EPHEMERIS_TYPE":"0","MEAN_MOTION_DOT":"-0.00000053","SITE":"AFETR","NORAD_CAT_ID":"52995","MEAN_ELEMENT_THEORY":"SGP4","REV_AT_EPOCH":"2857","MEAN_ANOMALY":"323.2098","EPOCH":"2023-01-10T07:51:21.833856","RCS_SIZE":"LARGE","TLE_LINE2":"2 52995  53.2144 236.2572 0002229  36.9047 323.2098 15.08843948 28571","REF_FRAME":"TEME","DECAY_DATE":null,"BSTAR":"0.00001477400000","CENTER_NAME":"EARTH","MEAN_MOTION_DDOT":"0.0000000000000","INCLINATION":"53.2144","ECCENTRICITY":"0.00022290","RA_OF_ASC_NODE":"236.2572"},{"ARG_OF_PERICENTER":"52.3549","TLE_LINE1":"1 52996U 22076L   23010.72846322 -.00000836  00000-0 -34405-4 0  9997","LAUNCH_DATE":"2022-07-07","CLASSIFICATION_TYPE":"U","COUNTRY_CODE":"US","OBJECT_NAME":"STARLINK-4295","APOAPSIS":"541.762","OBJECT_ID":"2022-076L","SEMIMAJOR_AXIS":"6917.889","PERIOD":"95.438","GP_ID":"222723238","PERIAPSIS":"537.747","FILE":"3739267","ELEMENT_SET_NO":"999","OBJECT_TYPE":"PAYLOAD","TIME_SYSTEM":"UTC","BSTAR":"-0.00003440500000","DECAY_DATE":null,"MEAN_MOTION_DDOT":"0.0000000000000","CENTER_NAME":"EARTH","RA_OF_ASC_NODE":"234.4668","ECCENTRICITY":"0.00029020","INCLINATION":"53.2122","SITE":"AFETR","MEAN_MOTION_DOT":"-0.00000836","EPHEMERIS_TYPE":"0","MEAN_MOTION":"15.08837025","REV_AT_EPOCH":"2863","NORAD_CAT_ID":"52996","MEAN_ELEMENT_THEORY":"SGP4","TLE_LINE2":"2 52996  53.2122 234.4668 0002902  52.3549 307.7706 15.08837025 28630","REF_FRAME":"TEME","EPOCH":"2023-01-10T17:28:59.222208","RCS_SIZE":"LARGE","MEAN_ANOMALY":"307.7706"},{"MEAN_ANOMALY":"272.9523","RCS_SIZE":"MEDIUM","EPOCH":"2023-01-10T00:59:34.571904","TLE_LINE2":"2 52997  53.2146 237.4233 0003558  87.1877 272.9523 15.09998970 28533","REF_FRAME":"TEME","MEAN_MOTION":"15.09998970","EPHEMERIS_TYPE":"0","MEAN_MOTION_DOT":"0.00017338","SITE":"AFETR","MEAN_ELEMENT_THEORY":"SGP4","NORAD_CAT_ID":"52997","REV_AT_EPOCH":"2853","CENTER_NAME":"EARTH","MEAN_MOTION_DDOT":"0.0000000000000","INCLINATION":"53.2146","ECCENTRICITY":"0.00035580","RA_OF_ASC_NODE":"237.4233","DECAY_DATE":null,"BSTAR":"0.00107030000000","ELEMENT_SET_NO":"999","OBJECT_TYPE":"PAYLOAD","TIME_SYSTEM":"UTC","GP_ID":"222665259","PERIOD":"95.364","FILE":"3739038","PERIAPSIS":"533.745","SEMIMAJOR_AXIS":"6914.340","OBJECT_ID":"2022-076M","APOAPSIS":"538.665","OBJECT_NAME":"STARLINK-4301","TLE_LINE1":"1 52997U 22076M   23010.04137236  .00017338  00000-0  10703-2 0  9996","ARG_OF_PERICENTER":"87.1877","CLASSIFICATION_TYPE":"U","COUNTRY_CODE":"US","LAUNCH_DATE":"2022-07-07"},{"BSTAR":"0.00013990000000","DECAY_DATE":null,"RA_OF_ASC_NODE":"236.2767","INCLINATION":"53.2123","ECCENTRICITY":"0.00018470","CENTER_NAME":"EARTH","MEAN_MOTION_DDOT":"0.0000000000000","REV_AT_EPOCH":"2857","MEAN_ELEMENT_THEORY":"SGP4","NORAD_CAT_ID":"52998","EPHEMERIS_TYPE":"0","MEAN_MOTION_DOT":"0.00001940","SITE":"AFETR","MEAN_MOTION":"15.08847494","REF_FRAME":"TEME","TLE_LINE2":"2 52998  53.2123 236.2767 0001847  43.9132 316.2006 15.08847494 28576","MEAN_ANOMALY":"316.2006","RCS_SIZE":"LARGE","EPOCH":"2023-01-10T07:47:26.157984","COUNTRY_CODE":"US","CLASSIFICATION_TYPE":"U","LAUNCH_DATE":"2022-07-07","TLE_LINE1":"1 52998U 22076N   23010.32460831  .00001940  00000-0  13990-3 0  9992","ARG_OF_PERICENTER":"43.9132","OBJECT_ID":"2022-076N","SEMIMAJOR_AXIS":"6917.857","APOAPSIS":"541.000","OBJECT_NAME":"STARLINK-4254","PERIAPSIS":"538.445","FILE":"3739038","PERIOD":"95.437","GP_ID":"222665751","TIME_SYSTEM":"UTC","OBJECT_TYPE":"PAYLOAD","ELEMENT_SET_NO":"999"},{"TLE_LINE1":"1 52999U 22076P   23010.90508634 -.00000203  00000-0  53488-5 0  9991","ARG_OF_PERICENTER":"47.8015","CLASSIFICATION_TYPE":"U","COUNTRY_CODE":"US","LAUNCH_DATE":"2022-07-07","SEMIMAJOR_AXIS":"6917.861","OBJECT_ID":"2022-076P","OBJECT_NAME":"STARLINK-4217","APOAPSIS":"541.219","PERIOD":"95.437","GP_ID":"222723011","PERIAPSIS":"538.233","FILE":"3739267","OBJECT_TYPE":"PAYLOAD","ELEMENT_SET_NO":"999","TIME_SYSTEM":"UTC","BSTAR":"0.00000534880000","DECAY_DATE":null,"CENTER_NAME":"EARTH","MEAN_MOTION_DDOT":"0.0000000000000","RA_OF_ASC_NODE":"233.6588","INCLINATION":"53.2174","ECCENTRICITY":"0.00021580","EPHEMERIS_TYPE":"0","MEAN_MOTION_DOT":"-0.00000203","SITE":"AFETR","MEAN_MOTION":"15.08846332","REV_AT_EPOCH":"2866","NORAD_CAT_ID":"52999","MEAN_ELEMENT_THEORY":"SGP4","REF_FRAME":"TEME","TLE_LINE2":"2 52999  53.2174 233.6588 0002158  47.8015 312.3160 15.08846332 28662","MEAN_ANOMALY":"312.3160","EPOCH":"2023-01-10T21:43:19.459776","RCS_SIZE":"LARGE"},{"LAUNCH_DATE":"2022-07-07","COUNTRY_CODE":"US","CLASSIFICATION_TYPE":"U","ARG_OF_PERICENTER":"66.7770","TLE_LINE1":"1 53000U 22076Q   23010.65485982 -.00001031  00000-0 -46656-4 0  9996","OBJECT_NAME":"STARLINK-4194","APOAPSIS":"541.114","SEMIMAJOR_AXIS":"6917.872","OBJECT_ID":"2022-076Q","PERIAPSIS":"538.360","FILE":"3739267","GP_ID":"222723701","PERIOD":"95.437","TIME_SYSTEM":"UTC","OBJECT_TYPE":"PAYLOAD","ELEMENT_SET_NO":"999","DECAY_DATE":null,"BSTAR":"-0.00004665600000","ECCENTRICITY":"0.00019910","INCLINATION":"53.2120","RA_OF_ASC_NODE":"234.7920","MEAN_MOTION_DDOT":"0.0000000000000","CENTER_NAME":"EARTH","NORAD_CAT_ID":"53000","MEAN_ELEMENT_THEORY":"SGP4","REV_AT_EPOCH":"2862","MEAN_MOTION":"15.08842740","SITE":"AFETR","MEAN_MOTION_DOT":"-0.00001031","EPHEMERIS_TYPE":"0","EPOCH":"2023-01-10T15:42:59.888448","RCS_SIZE":"LARGE","MEAN_ANOMALY":"293.3432","REF_FRAME":"TEME","TLE_LINE2":"2 53000  53.2120 234.7920 0001991  66.7770 293.3432 15.08842740 28626"},{"GP_ID":"222665736","PERIOD":"95.438","PERIAPSIS":"538.517","FILE":"3739038","ELEMENT_SET_NO":"999","OBJECT_TYPE":"PAYLOAD","TIME_SYSTEM":"UTC","ARG_OF_PERICENTER":"69.0035","TLE_LINE1":"1 53001U 22076R   23010.04030025  .00000722  00000-0  63467-4 0  9997","LAUNCH_DATE":"2022-07-07","COUNTRY_CODE":"US","CLASSIFICATION_TYPE":"U","OBJECT_NAME":"STARLINK-4190","APOAPSIS":"540.977","OBJECT_ID":"2022-076R","SEMIMAJOR_AXIS":"6917.882","MEAN_MOTION":"15.08839484","SITE":"AFETR","EPHEMERIS_TYPE":"0","MEAN_MOTION_DOT":"0.00000722","NORAD_CAT_ID":"53001","MEAN_ELEMENT_THEORY":"SGP4","REV_AT_EPOCH":"2853","EPOCH":"2023-01-10T00:58:01.941600","RCS_SIZE":"LARGE","MEAN_ANOMALY":"291.1147","TLE_LINE2":"2 53001  53.2174 237.5412 0001778  69.0035 291.1147 15.08839484 28536","REF_FRAME":"TEME","DECAY_DATE":null,"BSTAR":"0.00006346700000","MEAN_MOTION_DDOT":"0.0000000000000","CENTER_NAME":"EARTH","ECCENTRICITY":"0.00017780","INCLINATION":"53.2174","RA_OF_ASC_NODE":"237.5412"},{"TLE_LINE1":"1 53002U 22076S   23010.31996815  .00003087  00000-0  21192-3 0  9991","ARG_OF_PERICENTER":"28.6084","CLASSIFICATION_TYPE":"U","COUNTRY_CODE":"US","LAUNCH_DATE":"2022-07-07","OBJECT_ID":"2022-076S","SEMIMAJOR_AXIS":"6917.858","OBJECT_NAME":"STARLINK-4121","APOAPSIS":"541.570","GP_ID":"222665275","PERIOD":"95.437","PERIAPSIS":"537.876","FILE":"3739038","OBJECT_TYPE":"PAYLOAD","ELEMENT_SET_NO":"999","TIME_SYSTEM":"UTC","DECAY_DATE":null,"BSTAR":"0.00021192000000","CENTER_NAME":"EARTH","MEAN_MOTION_DDOT":"0.0000000000000","INCLINATION":"53.2143","ECCENTRICITY":"0.00026700","RA_OF_ASC_NODE":"236.2968","MEAN_MOTION":"15.08847466","MEAN_MOTION_DOT":"0.00003087","EPHEMERIS_TYPE":"0","SITE":"AFETR","NORAD_CAT_ID":"53002","MEAN_ELEMENT_THEORY":"SGP4","REV_AT_EPOCH":"2857","MEAN_ANOMALY":"331.5054","RCS_SIZE":"LARGE","EPOCH":"2023-01-10T07:40:45.248160","REF_FRAME":"TEME","TLE_LINE2":"2 53002  53.2143 236.2968 0002670  28.6084 331.5054 15.08847466 28571"},{"REF_FRAME":"TEME","TLE_LINE2":"2 53003  53.2180 234.3055 0001807  57.1081 303.0085 15.08838827 28641","MEAN_ANOMALY":"303.0085","RCS_SIZE":"MEDIUM","EPOCH":"2023-01-10T18:16:39.696384","MEAN_MOTION_DOT":"0.00000413","EPHEMERIS_TYPE":"0","SITE":"AFETR","MEAN_MOTION":"15.08838827","REV_AT_EPOCH":"2864","MEAN_ELEMENT_THEORY":"SGP4","NORAD_CAT_ID":"53003","CENTER_NAME":"EARTH","MEAN_MOTION_DDOT":"0.0000000000000","RA_OF_ASC_NODE":"234.3055","INCLINATION":"53.2180","ECCENTRICITY":"0.00018070","BSTAR":"0.00004404200000","DECAY_DATE":null,"OBJECT_TYPE":"PAYLOAD","ELEMENT_SET_NO":"999","TIME_SYSTEM":"UTC","PERIOD":"95.438","GP_ID":"222723474","FILE":"3739267","PERIAPSIS":"538.499","OBJECT_ID":"2022-076T","SEMIMAJOR_AXIS":"6917.884","OBJECT_NAME":"STARLINK-4255","APOAPSIS":"540.999","TLE_LINE1":"1 53003U 22076T   23010.76157056  .00000413  00000-0  44042-4 0  9997","ARG_OF_PERICENTER":"57.1081","COUNTRY_CODE":"US","CLASSIFICATION_TYPE":"U","LAUNCH_DATE":"2022-07-07"},{"MEAN_ANOMALY":"300.7642","RCS_SIZE":"LARGE","EPOCH":"2023-01-10T07:30:09.502272","TLE_LINE2":"2 53004  53.2148 236.3126 0001810  59.3528 300.7642 15.08848265 28573","REF_FRAME":"TEME","MEAN_MOTION":"15.08848265","EPHEMERIS_TYPE":"0","MEAN_MOTION_DOT":"0.00001309","SITE":"AFETR","MEAN_ELEMENT_THEORY":"SGP4","NORAD_CAT_ID":"53004","REV_AT_EPOCH":"2857","CENTER_NAME":"EARTH","MEAN_MOTION_DDOT":"0.0000000000000","INCLINATION":"53.2148","ECCENTRICITY":"0.00018100","RA_OF_ASC_NODE":"236.3126","DECAY_DATE":null,"BSTAR":"0.00010031000000","ELEMENT_SET_NO":"999","OBJECT_TYPE":"PAYLOAD","TIME_SYSTEM":"UTC","GP_ID":"222664518","PERIOD":"95.437","FILE":"3739038","PERIAPSIS":"538.468","OBJECT_ID":"2022-076U","SEMIMAJOR_AXIS":"6917.855","OBJECT_NAME":"STARLINK-4253","APOAPSIS":"540.972","TLE_LINE1":"1 53004U 22076U   23010.31260998  .00001309  00000-0  10031-3 0  9994","ARG_OF_PERICENTER":"59.3528","CLASSIFICATION_TYPE":"U","COUNTRY_CODE":"US","LAUNCH_DATE":"2022-07-07"}];
